[{"OBJECT_NAME":"STARLINK-33736","OBJECT_ID":"2025-069T","EPOCH":"2026-03-09T12:41:20.153472","MEAN_MOTION":15.30184124,"ECCENTRICITY":0.00018611,"INCLINATION":53.1605,"RA_OF_ASC_NODE":142.9688,"ARG_OF_PERICENTER":45.9569,"MEAN_ANOMALY":314.1585,"EPHEMERIS_TYPE":0,"CLASSIFICATION_TYPE":"U","NORAD_CAT_ID":63450,"ELEMENT_SET_NO":999,"REV_AT_EPOCH":5333,"BSTAR":0.0013052039,"MEAN_MOTION_DOT":0.00038479,"MEAN_MOTION_DDOT":0},{"OBJECT_NAME":"ARIANE 44L DEB [SPELDA]","OBJECT_ID":"1991-084D","EPOCH":"2026-03-09T06:14:06.495360","MEAN_MOTION":4.16642703,"ECCENTRICITY":0.5916369,"INCLINATION":3.6965,"RA_OF_ASC_NODE":45.9102,"ARG_OF_PERICENTER":118.503,"MEAN_ANOMALY":312.8871,"EPHEMERIS_TYPE":0,"CLASSIFICATION_TYPE":"U","NORAD_CAT_ID":21818,"ELEMENT_SET_NO":999,"REV_AT_EPOCH":36059,"BSTAR":0.0057692,"MEAN_MOTION_DOT":0.00029197,"MEAN_MOTION_DDOT":0}]
